NORAD_CAT_ID,OBJECT_NAME,OBJECT_TYPE,EPOCH,MEAN_MOTION,ECCENTRICITY,INCLINATION,RA_OF_ASC_NODE,ARG_OF_PERICENTER,MEAN_ANOMALY,BSTAR,MEAN_MOTION_DOT,MEAN_MOTION_DDOT,TLE_LINE0,TLE_LINE1,TLE_LINE2,SEMIMAJOR_AXIS,PERIOD,APOGEE,PERIGEE,DECAYED
52100.0,STARLINK-3702,PAYLOAD,2022-05-06 22:00:00,15.35540727,0.0001192,53.2174,267.9672,65.1135,286.2501,-0.022182,-0.0071782,0.0,0 STARLINK-3702,1 52100U 22029N   22126.91667824 -.00717820  00000-0 -22182-1 0  9992,2 52100  53.2174 267.9672 0001192  65.1135 286.2501 15.35540727  8860,6837.4519999999975,93.778,460.132,458.502,0.0
52100.0,STARLINK-3702,PAYLOAD,2022-05-07 14:00:01,15.3452073,0.000135,53.2175,264.8542,56.535,20.9477,-0.022956,-0.00718866,0.0,0 STARLINK-3702,1 52100U 22029N   22127.58334491 -.00718866  00000-0 -22956-1 0  9997,2 52100  53.2175 264.8542 0001350  56.5350  20.9477 15.34520730  3672,6840.481,93.84,463.27,461.423,0.0
52100.0,STARLINK-3702,PAYLOAD,2022-05-07 22:00:00,15.34009959,0.0001226,53.2172,263.2999,74.1862,45.4364,-0.023259,-0.0071672,0.0,0 STARLINK-3702,1 52100U 22029N   22127.91667824 -.00716720  00000-0 -23259-1 0  9997,2 52100  53.2172 263.2999 0001226  74.1862  45.4364 15.34009959  9010,6842.0,93.872,464.704,463.026,0.0
52100.0,STARLINK-3702,PAYLOAD,2022-05-08 14:00:01,15.32988297,0.0001520999999999,53.2175,260.1943,60.2453,141.82,-0.023951,-0.00714662,0.0,0 STARLINK-3702,1 52100U 22029N   22128.58334491 -.00714662  00000-0 -23951-1 0  9994,2 52100  53.2175 260.1943 0001521  60.2453 141.8200 15.32988297  3651,6845.0390000000025,93.934,467.945,465.86300000000006,0.0
52100.0,STARLINK-3702,PAYLOAD,2022-05-08 20:00:01,15.32604381,0.0001274999999999,53.2174,259.0316,77.0316,65.3173,-0.024137,-0.00711716,0.0,0 STARLINK-3702,1 52100U 22029N   22128.83334491 -.00711716  00000-0 -24137-1 0  9996,2 52100  53.2174 259.0316 0001275  77.0316  65.3173 15.32604381  9150,6846.182,93.958,468.92,467.175,0.0
52100.0,STARLINK-3702,PAYLOAD,2022-05-08 22:00:00,15.32481802,0.0001307,53.2172,258.6435,84.0954,158.2701,-0.024545,-0.00720252,0.0,0 STARLINK-3702,1 52100U 22029N   22128.91667824 -.00720252  00000-0 -24545-1 0  9992,2 52100  53.2172 258.6435 0001307  84.0954 158.2701 15.32481802  3667,6846.547,93.965,469.307,467.518,0.0
52100.0,STARLINK-3702,PAYLOAD,2022-05-09 14:00:01,15.31459577,0.0001384,53.2175,255.5452,60.308,260.887,-0.025191,-0.00716138,0.0,0 STARLINK-3702,1 52100U 22029N   22129.58335648 -.00716138  00000-0 -25191-1 0  9998,2 52100  53.2175 255.5452 0001384  60.3080 260.8870 15.31459577  3678,6849.594,94.028,472.407,470.511,0.0
52100.0,STARLINK-3702,PAYLOAD,2022-05-09 22:00:00,15.30951611,0.0001169,53.2173,253.9979,75.3984,284.1952,-0.025716,-0.00719232,0.0,0 STARLINK-3702,1 52100U 22029N   22129.91667824 -.00719232  00000-0 -25716-1 0  9990,2 52100  53.2173 253.9979 0001169  75.3984 284.1952 15.30951611  9325,6851.109,94.059,473.775,472.173,0.0
52100.0,STARLINK-3702,PAYLOAD,2022-05-10 14:00:01,15.29931005,0.0001409999999999,53.2175,250.9073,53.7345,20.9475,-0.026514,-0.00718417,0.0,0 STARLINK-3702,1 52100U 22029N   22130.58334491 -.00718417  00000-0 -26514-1 0  9997,2 52100  53.2175 250.9073 0001410  53.7345  20.9475 15.29931005  3669,6854.155,94.122,476.987,475.054,0.0
52100.0,STARLINK-3702,PAYLOAD,2022-05-10 19:56:54,15.30603957,0.0001149,53.2153,249.7418,41.6845,318.4244,-0.010851,-0.00312521,0.0,0 STARLINK-3702,1 52100U 22029N   22130.83118616 -.00312521  00000-0 -10851-1 0  9997,2 52100  53.2153 249.7418 0001149  41.6845 318.4244 15.30603957  9461,6852.146,94.081,474.799,473.224,0.0
52100.0,STARLINK-3702,PAYLOAD,2022-05-11 22:00:00,15.27890943,0.0001371,53.2172,244.7393,75.1973,142.3079,-0.028222,-0.00726361,0.0,0 STARLINK-3702,1 52100U 22029N   22131.91667824 -.00726361  00000-0 -28222-1 0  9999,2 52100  53.2172 244.7393 0001371  75.1973 142.3079 15.27890943  9627,6860.255,94.248,483.061,481.18,0.0
52100.0,STARLINK-3702,PAYLOAD,2022-05-12 14:00:01,15.26869565,0.0001455,53.2174,241.6633,63.0153,222.2248,-0.029017,-0.0072403,0.0,0 STARLINK-3702,1 52100U 22029N   22132.58334491 -.00724030  00000-0 -29017-1 0  9998,2 52100  53.2174 241.6633 0001455  63.0153 222.2248 15.26869565  1309,6863.314,94.311,486.17800000000005,484.181,0.0
52100.0,STARLINK-3702,PAYLOAD,2022-05-12 22:00:00,15.26361574,0.000124,53.2172,240.1261,82.3194,235.8687,-0.029622,-0.00727511,0.0,0 STARLINK-3702,1 52100U 22029N   22132.91667824 -.00727511  00000-0 -29622-1 0  9993,2 52100  53.2172 240.1261 0001240  82.3194 235.8687 15.26361574  1303,6864.837,94.342,487.55300000000005,485.851,0.0
52100.0,STARLINK-3702,PAYLOAD,2022-05-13 06:00:00,15.25848341,0.0001243,53.2175,238.5897,71.5054,279.0197,-0.02982,-0.00721482,0.0,0 STARLINK-3702,1 52100U 22029N   22133.25001157 -.00721482  00000-0 -29820-1 0  9993,2 52100  53.2175 238.5897 0001243  71.5054 279.0197 15.25848341  9833,6866.376,94.374,489.095,487.388,0.0
52100.0,STARLINK-3702,PAYLOAD,2022-05-13 14:00:01,15.25341739,0.0001307,53.2175,237.0575,63.4932,318.7523,-0.030545,-0.0072736999999999,0.0,0 STARLINK-3702,1 52100U 22029N   22133.58334491 -.00727370  00000-0 -30545-1 0  9997,2 52100  53.2175 237.0575 0001307  63.4932 318.7523 15.25341739  1303,6867.896,94.405,490.659,488.864,0.0
52100.0,STARLINK-3702,PAYLOAD,2022-05-13 22:00:00,15.24830532,0.0001176,53.2173,235.524,79.4874,333.8687,-0.03092,-0.00725175,0.0,0 STARLINK-3702,1 52100U 22029N   22133.91667824 -.00725175  00000-0 -30920-1 0  9991,2 52100  53.2173 235.5240 0001176  79.4874 333.8687 15.24830532  1301,6869.431,94.437,492.104,490.489,0.0
52100.0,STARLINK-3702,PAYLOAD,2022-05-14 06:00:00,15.24319585,0.0001303,53.2175,233.991,66.3484,17.5056,-0.031299,-0.00723039,0.0,0 STARLINK-3702,1 52100U 22029N   22134.25001157 -.00723039  00000-0 -31299-1 0  9997,2 52100  53.2175 233.9910 0001303  66.3484  17.5056 15.24319585  9981,6870.965999999999,94.468,493.727,491.936,0.0
52100.0,STARLINK-3702,PAYLOAD,2022-05-14 14:00:01,15.23811613,0.0001491,53.2174,232.4626,57.2542,56.4823,-0.031963,-0.00726961,0.0,0 STARLINK-3702,1 52100U 22029N   22134.58334491 -.00726961  00000-0 -31963-1 0  9998,2 52100  53.2174 232.4626 0001491  57.2542  56.4823 15.23811613  1300,6872.493,94.5,495.383,493.334,0.0
52100.0,STARLINK-3702,PAYLOAD,2022-05-14 22:00:00,15.23300247,0.0001329,53.2173,230.9324,74.4124,68.5965,-0.032326,-0.0072423999999999,0.0,0 STARLINK-3702,1 52100U 22029N   22134.91667824 -.00724240  00000-0 -32326-1 0  9996,2 52100  53.2173 230.9324 0001329  74.4124  68.5965 15.23300247  1301,6874.031,94.532,496.81,494.983,0.0
52100.0,STARLINK-3702,PAYLOAD,2022-05-15 06:00:00,15.22790707,0.0001424,53.2176,229.4034,73.8985,97.7692,-0.032821,-0.00724259,0.0,0 STARLINK-3702,1 52100U 22029N   22135.25001157 -.00724259  00000-0 -32821-1 0  9995,2 52100  53.2176 229.4034 0001424  73.8985  97.7692 15.22790707 10134,6875.565,94.563,498.409,496.45,0.0
52100.0,STARLINK-3702,PAYLOAD,2022-05-15 14:00:01,15.22279918,0.0001476,53.2174,227.8782,70.2385,129.53799999999998,-0.033298,-0.00723761,0.0,0 STARLINK-3702,1 52100U 22029N   22135.58335648 -.00723761  00000-0 -33298-1 0  9992,2 52100  53.2174 227.8782 0001476  70.2385 129.5380 15.22279918  1309,6877.102,94.595,499.983,497.952,0.0
52100.0,STARLINK-3702,PAYLOAD,2022-05-15 22:00:00,15.21771297,0.0001374,53.2174,226.3515,81.3644,145.7819,-0.033917,-0.00726017,0.0,0 STARLINK-3702,1 52100U 22029N   22135.91667824 -.00726017  00000-0 -33917-1 0  9998,2 52100  53.2174 226.3515 0001374  81.3644 145.7819 15.21771297  1308,6878.635,94.627,501.445,499.555,0.0
52100.0,STARLINK-3702,PAYLOAD,2022-05-16 06:00:02,15.21260053,0.0001409999999999,53.2175,224.8261,73.9293,180.1012,-0.034266,-0.00722735,0.0,0 STARLINK-3702,1 52100U 22029N   22136.25002315 -.00722735  00000-0 -34266-1 0  9995,2 52100  53.2175 224.8261 0001410  73.9293 180.1012 15.21260053 10286,6880.176,94.658,503.011,501.071,0.0
52100.0,STARLINK-3702,PAYLOAD,2022-05-16 14:00:01,15.20749872,0.0001459,53.2176,223.3047,65.7075,214.4663,-0.034808,-0.00723194,0.0,0 STARLINK-3702,1 52100U 22029N   22136.58334491 -.00723194  00000-0 -34808-1 0  9996,2 52100  53.2176 223.3047 0001459  65.7075 214.4663 15.20749872  1309,6881.714,94.69,504.584,502.575,0.0
52100.0,STARLINK-3702,PAYLOAD,2022-05-16 22:00:00,15.20241673,0.0001278,53.2175,221.7815,84.0463,221.7225,-0.035519,-0.00726759,0.0,0 STARLINK-3702,1 52100U 22029N   22136.91667824 -.00726759  00000-0 -35519-1 0  9992,2 52100  53.2175 221.7815 0001278  84.0463 221.7225 15.20241673  1308,6883.248000000001,94.722,505.99300000000005,504.233,0.0
52100.0,STARLINK-3702,PAYLOAD,2022-05-17 06:00:00,15.197293300000002,0.0001291,53.2177,220.2599,71.4993,259.2522,-0.035766,-0.0072131,0.0,0 STARLINK-3702,1 52100U 22029N   22137.25001157 -.00721310  00000-0 -35766-1 0  9993,2 52100  53.2177 220.2599 0001291  71.4993 259.2522 15.19729330 10435,6884.795,94.754,507.549,505.771,0.0
52100.0,STARLINK-3702,PAYLOAD,2022-05-17 14:00:01,15.19220835,0.0001322,53.2176,218.742,65.3777,289.8049,-0.036488,-0.00724784,0.0,0 STARLINK-3702,1 52100U 22029N   22137.58335648 -.00724784  00000-0 -36488-1 0  9994,2 52100  53.2176 218.7420 0001322  65.3777 289.8049 15.19220835  1301,6886.331,94.785,509.107,507.286,0.0
52100.0,STARLINK-3702,PAYLOAD,2022-05-17 22:00:01,15.18711079,0.00012,53.2175,217.2221,79.7055,299.2342,-0.037078,-0.00725586,0.0,0 STARLINK-3702,1 52100U 22029N   22137.91668981 -.00725586  00000-0 -37078-1 0  9997,2 52100  53.2175 217.2221 0001200  79.7055 299.2342 15.18711079  1301,6887.871999999999,94.817,510.564,508.91,0.0
52100.0,STARLINK-3702,PAYLOAD,2022-05-18 06:00:00,15.18199349,0.0001266,53.2177,215.7045,71.4856,330.535,-0.037406,-0.00721516,0.0,0 STARLINK-3702,1 52100U 22029N   22138.25001157 -.00721516  00000-0 -37406-1 0  9995,2 52100  53.2177 215.7045 0001266  71.4856 330.5350 15.18199349 10599,6889.42,94.849,512.1569999999998,510.412,0.0
